{
  "norad_id": 42845,
  "name": "LEMUR-2-ZACHARY",
  "history": [
    {
      "epoch": "2026-03-28T18:50:15.728928Z",
      "apogee_km": 437.42484370776947,
      "perigee_km": 433.17571168390714,
      "latitude_deg": 3.7575010364462296e-06,
      "longitude_deg": 169.32118948475548,
      "height_km": 437.32757027731293,
      "semi_major_axis_km": 6813.437277695838,
      "eccentricity": 0.00031182,
      "inclination_deg": 97.3657,
      "raan_deg": 278.0871,
      "arg_perigee_deg": 301.1642,
      "mean_anomaly_deg": 58.93,
      "mean_motion_rev_day": 15.43666106
    },
    {
      "epoch": "2026-03-28T23:30:17.757216Z",
      "apogee_km": 437.3535663361108,
      "perigee_km": 433.1347207320341,
      "latitude_deg": -4.646389192811602e-06,
      "longitude_deg": 99.3179629608035,
      "height_km": 437.30033039200765,
      "semi_major_axis_km": 6813.381143534072,
      "eccentricity": 0.0003096,
      "inclination_deg": 97.3655,
      "raan_deg": 278.284,
      "arg_perigee_deg": 300.4993,
      "mean_anomaly_deg": 59.5949,
      "mean_motion_rev_day": 15.43685183
    }
  ]
}